H1 CPF 01  gfz 2022 01 14 01  5141 tandemx   
H2 1003001  6202 36605    2022 01 14 00 59 42 2022 01 19 00 00 42   120 1 1  0 0 0
H9
10 0 59593  20142.000000  0   -6840845.923   -795749.646   -185388.781
10 0 59593  20262.000000  0   -6823104.752   -614608.654    718583.576
10 0 59593  20382.000000  0   -6682824.851   -424105.060   1609901.874
10 0 59593  20502.000000  0   -6422315.308   -229692.205   2472865.931
10 0 59593  20622.000000  0   -6046106.142    -36834.278   3292275.849
10 0 59593  20742.000000  0   -5560863.416    149129.506   4053707.491
10 0 59593  20862.000000  0   -4975261.791    323115.995   4743771.057
10 0 59593  20982.000000  0   -4299818.801    480421.358   5350347.439
10 0 59593  21102.000000  0   -3546696.310    616834.347   5862798.781
10 0 59593  21222.000000  0   -2729472.593    728736.080   6272151.588
10 0 59593  21342.000000  0   -1862890.214    813184.322   6571248.538
10 0 59593  21462.000000  0    -962584.442    867982.018   6754867.864
10 0 59593  21582.000000  0     -44798.649    891727.645   6819807.606
10 0 59593  21702.000000  0     873908.249    883846.691   6764937.217
10 0 59593  21822.000000  0    1776959.176    844604.398   6591215.928
10 0 59593  21942.000000  0    2648056.766    775099.283   6301677.137
10 0 59593  22062.000000  0    3471477.436    677237.290   5901379.574
10 0 59593  22182.000000  0    4232357.728    553687.128   5397323.915
10 0 59593  22302.000000  0    4916966.257    407817.496   4798336.301
10 0 59593  22422.000000  0    5512958.183    243616.332   4114920.476
10 0 59593  22542.000000  0    6009607.640     65595.504   3359078.019
10 0 59593  22662.000000  0    6398011.375   -121317.448   2544098.682
10 0 59593  22782.000000  0    6671257.491   -311899.596   1684324.730
10 0 59593  22902.000000  0    6824556.825   -500762.134    794895.274
10 0 59593  23022.000000  0    6855333.589   -682483.588   -108526.849
10 0 59593  23142.000000  0    6763271.428   -851745.534  -1010040.174
10 0 59593  23262.000000  0    6550312.465  -1003466.751  -1893793.456
10 0 59593  23382.000000  0    6220611.367  -1132931.911  -2744272.364
10 0 59593  23502.000000  0    5780445.279  -1235911.905  -3546577.136
10 0 59593  23622.000000  0    5238083.148  -1308772.573  -4286685.845
10 0 59593  23742.000000  0    4603618.244  -1348568.970  -4951697.782
10 0 59593  23862.000000  0    3888769.328  -1353123.937  -5530053.290
10 0 59593  23982.000000  0    3106654.270  -1321089.829  -6011726.730
10 0 59593  24102.000000  0    2271542.581  -1251991.251  -6388389.297
10 0 59593  24222.000000  0    1398592.577  -1146247.838  -6653542.168
10 0 59593  24342.000000  0     503576.777  -1005178.540  -6802618.008
10 0 59593  24462.000000  0    -397399.245   -830986.973  -6833051.397
10 0 59593  24582.000000  0   -1288180.354   -626727.473  -6744317.749
10 0 59593  24702.000000  0   -2152845.055   -396252.713  -6537941.835
10 0 59593  24822.000000  0   -2975983.824   -144143.188  -6217473.275
10 0 59593  24942.000000  0   -3742967.535    124379.743  -5788432.121
10 0 59593  25062.000000  0   -4440206.275    403556.998  -5258224.656
10 0 59593  25182.000000  0   -5055392.112    687208.768  -4636026.263
10 0 59593  25302.000000  0   -5577722.745    968864.099  -3932635.263
10 0 59593  25422.000000  0   -5998101.445   1241901.779  -3160295.181
10 0 59593  25542.000000  0   -6309307.091   1499698.241  -2332488.414
10 0 59593  25662.000000  0   -6506130.849   1735779.150  -1463704.357
10 0 59593  25782.000000  0   -6585475.910   1943972.051   -569185.268
10 0 59593  25902.000000  0   -6546415.689   2118555.190    335346.545
10 0 59593  26022.000000  0   -6390207.860   2254398.609   1233972.427
10 0 59593  26142.000000  0   -6120264.854   2347095.057   2110865.882
10 0 59593  26262.000000  0   -5742080.430   2393076.487   2950580.647
10 0 59593  26382.000000  0   -5263114.561   2389712.409   3738330.955
10 0 59593  26502.000000  0   -4692639.103   2335387.570   4460257.998
10 0 59593  26622.000000  0   -4041549.473   2229558.027   5103675.693
10 0 59593  26742.000000  0   -3322148.440   2072784.421   5657292.760
10 0 59593  26862.000000  0   -2547906.061   1866742.399   6111408.766
10 0 59593  26982.000000  0   -1733199.704   1614208.900   6458079.617
10 0 59593  27102.000000  0    -893041.605   1319024.858   6691249.978
10 0 59593  27222.000000  0     -42800.131    986035.897   6806851.507
10 0 59593  27342.000000  0     802080.667    621012.039   6802868.909
10 0 59593  27462.000000  0    1626360.392    230547.716   6679372.604
10 0 59593  27582.000000  0    2415275.762   -178056.542   6438517.781
10 0 59593  27702.000000  0    3154804.649   -596929.786   6084510.379
10 0 59593  27822.000000  0    3831917.366  -1017780.750   5623538.448
10 0 59593  27942.000000  0    4434810.023  -1432060.678   5063669.512
10 0 59593  28062.000000  0    4953115.306  -1831135.963   4414715.360
10 0 59593  28182.000000  0    5378088.748  -2206466.595   3688065.840
10 0 59593  28302.000000  0    5702765.611  -2549787.945   2896491.403
10 0 59593  28422.000000  0    5922082.370  -2853291.213   2053917.837
10 0 59593  28542.000000  0    6032961.529  -3109797.698   1175179.109
10 0 59593  28662.000000  0    6034358.379  -3312923.811    275750.512
10 0 59593  28782.000000  0    5927265.201  -3457230.802   -628531.837
10 0 59593  28902.000000  0    5714675.481  -3538356.624  -1521759.116
10 0 59593  29022.000000  0    5401505.605  -3553124.691  -2388238.712
10 0 59593  29142.000000  0    4994479.784  -3499628.767  -3212775.861
10 0 59593  29262.000000  0    4501980.352  -3377291.614  -3980944.179
10 0 59593  29382.000000  0    3933867.549  -3186896.478  -4679338.279
10 0 59593  29502.000000  0    3301273.645  -2930590.206  -5295804.475
10 0 59593  29622.000000  0    2616377.672  -2611858.828  -5819644.134
10 0 59593  29742.000000  0    1892167.569  -2235478.709  -6241788.890
10 0 59593  29862.000000  0    1142192.661  -1807442.893  -6554948.461
10 0 59593  29982.000000  0     380310.034  -1334862.513  -6753726.129
10 0 59593  30102.000000  0    -379568.252   -825848.197  -6834701.456
10 0 59593  30222.000000  0   -1123723.581   -289372.724  -6796481.995
10 0 59593  30342.000000  0   -1838872.731    264883.572  -6639724.597
10 0 59593  30462.000000  0   -2512399.592    826703.109  -6367124.558
10 0 59593  30582.000000  0   -3132572.762   1385514.329  -5983374.392
10 0 59593  30702.000000  0   -3688747.594   1930585.787  -5495092.443
10 0 59593  30822.000000  0   -4171551.190   2451228.829  -4910720.737
10 0 59593  30942.000000  0   -4573045.506   2937006.054  -4240389.772
10 0 59593  31062.000000  0   -4886864.119   3377940.087  -3495752.559
10 0 59593  31182.000000  0   -5108321.306   3764719.633  -2689791.320
10 0 59593  31302.000000  0   -5234489.968   4088898.404  -1836595.995
10 0 59593  31422.000000  0   -5264245.991   4343080.974   -951119.613
10 0 59593  31542.000000  0   -5198277.673   4521091.558    -48913.540
10 0 59593  31662.000000  0   -5039058.360   4618121.175    854151.850
10 0 59593  31782.000000  0   -4790782.081   4630847.387   1742175.756
10 0 59593  31902.000000  0   -4459263.728   4557523.755   2599516.404
10 0 59593  32022.000000  0   -4051806.242   4398037.810   3411074.921
10 0 59593  32142.000000  0   -3577039.107   4153935.439   4162567.691
10 0 59593  32262.000000  0   -3044733.060   3828411.288   4840781.552
10 0 59593  32382.000000  0   -2465595.024   3426265.922   5433807.784
10 0 59593  32502.000000  0   -1851047.833   2953830.734   5931249.485
10 0 59593  32622.000000  0   -1213000.510   2418862.951   6324399.446
10 0 59593  32742.000000  0    -563614.419   1830412.723   6606385.397
10 0 59593  32862.000000  0      84928.072   1198667.030   6772283.298
10 0 59593  32982.000000  0     720652.034    534771.357   6819198.510
10 0 59593  33102.000000  0    1332010.171   -149366.827   6746312.350
10 0 59593  33222.000000  0    1908091.391   -841290.700   6554896.163
10 0 59593  33342.000000  0    2438815.063  -1528220.391   6248290.783
10 0 59593  33462.000000  0    2915108.372  -2197288.159   5831852.881
10 0 59593  33582.000000  0    3329064.192  -2835780.356   5312866.749
10 0 59593  33702.000000  0    3674075.568  -3431380.749   4700422.882
10 0 59593  33822.000000  0    3944945.371  -3972411.588   4005264.371
10 0 59593  33942.000000  0    4137968.531  -4448067.381   3239601.993
10 0 59593  34062.000000  0    4250984.318  -4848636.214   2416901.011
10 0 59593  34182.000000  0    4283397.981  -5165703.125   1551642.403
10 0 59593  34302.000000  0    4236170.045  -5392330.015    659063.006
10 0 59593  34422.000000  0    4111773.110  -5523207.058   -245119.777
10 0 59593  34542.000000  0    3914119.107  -5554773.120  -1144992.130
10 0 59593  34662.000000  0    3648456.381  -5485301.504  -2024733.667
10 0 59593  34782.000000  0    3321240.098  -5314947.238  -2868902.833
10 0 59593  34902.000000  0    2939980.564  -5045756.913  -3662713.726
10 0 59593  35022.000000  0    2513071.776  -4681640.254  -4392297.462
10 0 59593  35142.000000  0    2049605.647  -4228305.304  -5044942.671
10 0 59593  35262.000000  0    1559177.962  -3693158.876  -5609310.762
10 0 59593  35382.000000  0    1051690.615  -3085176.990  -6075623.378
10 0 59593  35502.000000  0     537152.908  -2414748.539  -6435821.425
10 0 59593  35622.000000  0      25486.167  -1693493.827  -6683693.604
10 0 59593  35742.000000  0    -473663.673   -934061.860  -6814972.990
10 0 59593  35862.000000  0    -951102.720   -149910.440  -6827402.441
10 0 59593  35982.000000  0   -1398254.212    644927.495  -6720768.454
10 0 59593  36102.000000  0   -1807309.143   1436088.386  -6496904.082
10 0 59593  36222.000000  0   -2171359.379   2209131.263  -6159660.708
10 0 59593  36342.000000  0   -2484513.293   2949795.389  -5714850.046
10 0 59593  36462.000000  0   -2741991.723   3644260.850  -5170154.348
10 0 59593  36582.000000  0   -2940202.848   4279406.813  -4535005.685
99
